{
  "type": "FeatureCollection",
  "features": [
    {
      "type": "Feature",
      "properties": {
        "norad_id": 31841,
        "name": "FENGYUN 1C DEB",
        "group": "fengyun-1c-debris",
        "lat": 76.63304844982326,
        "lon": 122.35669792582343,
        "alt_km": 1067.6626232094568,
        "timestamp": "2025-12-18T13:51:49.968406+00:00",
        "meta_object_name": "FENGYUN 1C DEB",
        "meta_object_id": "1999-025CJF",
        "meta_epoch": "2025-12-15T05:57:44.822880",
        "meta_mean_motion": 14.03592641,
        "meta_eccentricity": 0.03085238,
        "meta_inclination": 98.4166,
        "meta_ra_of_asc_node": 157.8094,
        "meta_arg_of_pericenter": 298.3378,
        "meta_mean_anomaly": 246.4475,
        "meta_ephemeris_type": 0,
        "meta_classification_type": "U",
        "meta_norad_cat_id": 31841,
        "meta_element_set_no": 999,
        "meta_rev_at_epoch": 59374,
        "meta_bstar": 0.0012677307,
        "meta_mean_motion_dot": 2.992e-05,
        "meta_mean_motion_ddot": 0,
        "tle_line1": "1 31841U 99025CJF 25349.24843545  .00002992  00000+0  12677-2 0  9996",
        "tle_line2": "2 31841  98.4166 157.8094 0308523 298.3378 246.4475 14.03592641593743"
      },
      "geometry": {
        "type": "Point",
        "coordinates": [
          122.35669792582343,
          76.63304844982326
        ]
      }
    },
    {
      "type": "Feature",
      "properties": {
        "norad_id": 31843,
        "name": "FENGYUN 1C DEB",
        "group": "fengyun-1c-debris",
        "lat": -48.95405564993825,
        "lon": 101.94400396586339,
        "alt_km": 1274.7676674665454,
        "timestamp": "2025-12-18T13:51:49.968417+00:00",
        "meta_object_name": "FENGYUN 1C DEB",
        "meta_object_id": "1999-025CJH",
        "meta_epoch": "2025-12-16T15:40:09.812640",
        "meta_mean_motion": 13.33949191,
        "meta_eccentricity": 0.06398792,
        "meta_inclination": 99.2827,
        "meta_ra_of_asc_node": 291.0118,
        "meta_arg_of_pericenter": 344.4578,
        "meta_mean_anomaly": 13.7684,
        "meta_ephemeris_type": 0,
        "meta_classification_type": "U",
        "meta_norad_cat_id": 31843,
        "meta_element_set_no": 999,
        "meta_rev_at_epoch": 64748,
        "meta_bstar": 0.0054292253,
        "meta_mean_motion_dot": 8.684e-05,
        "meta_mean_motion_ddot": 0,
        "tle_line1": "1 31843U 99025CJH 25350.65289135  .00008684  00000+0  54292-2 0  9997",
        "tle_line2": "2 31843  99.2827 291.0118 0639879 344.4578  13.7684 13.33949191647488"
      },
      "geometry": {
        "type": "Point",
        "coordinates": [
          101.94400396586339,
          -48.95405564993825
        ]
      }
    },
    {
      "type": "Feature",
      "properties": {
        "norad_id": 31844,
        "name": "FENGYUN 1C DEB",
        "group": "fengyun-1c-debris",
        "lat": -18.87777088537326,
        "lon": -14.2453635760787,
        "alt_km": 757.0004694171284,
        "timestamp": "2025-12-18T13:51:49.968428+00:00",
        "meta_object_name": "FENGYUN 1C DEB",
        "meta_object_id": "1999-025CJJ",
        "meta_epoch": "2025-12-17T17:39:24.165504",
        "meta_mean_motion": 14.19770109,
        "meta_eccentricity": 0.01033475,
        "meta_inclination": 100.3012,
        "meta_ra_of_asc_node": 341.2109,
        "meta_arg_of_pericenter": 337.3255,
        "meta_mean_anomaly": 22.3367,
        "meta_ephemeris_type": 0,
        "meta_classification_type": "U",
        "meta_norad_cat_id": 31844,
        "meta_element_set_no": 999,
        "meta_rev_at_epoch": 95403,
        "meta_bstar": 0.00073096392,
        "meta_mean_motion_dot": 1.575e-05,
        "meta_mean_motion_ddot": 0,
        "tle_line1": "1 31844U 99025CJJ 25351.73569636  .00001575  00000+0  73096-3 0  9991",
        "tle_line2": "2 31844 100.3012 341.2109 0103347 337.3255  22.3367 14.19770109954038"
      },
      "geometry": {
        "type": "Point",
        "coordinates": [
          -14.2453635760787,
          -18.87777088537326
        ]
      }
    },
    {
      "type": "Feature",
      "properties": {
        "norad_id": 31850,
        "name": "FENGYUN 1C DEB",
        "group": "fengyun-1c-debris",
        "lat": 63.72462140028864,
        "lon": 20.28188820154888,
        "alt_km": 405.22970268029894,
        "timestamp": "2025-12-18T13:51:49.968438+00:00",
        "meta_object_name": "FENGYUN 1C DEB",
        "meta_object_id": "1999-025CJQ",
        "meta_epoch": "2025-12-14T09:23:04.476192",
        "meta_mean_motion": 15.33433546,
        "meta_eccentricity": 0.00762245,
        "meta_inclination": 98.5734,
        "meta_ra_of_asc_node": 33.2199,
        "meta_arg_of_pericenter": 83.7911,
        "meta_mean_anomaly": 277.2005,
        "meta_ephemeris_type": 0,
        "meta_classification_type": "U",
        "meta_norad_cat_id": 31850,
        "meta_element_set_no": 999,
        "meta_rev_at_epoch": 65854,
        "meta_bstar": 0.0030655456,
        "meta_mean_motion_dot": 0.00109983,
        "meta_mean_motion_ddot": 0,
        "tle_line1": "1 31850U 99025CJQ 25348.39102403  .00109983  00000+0  30655-2 0  9996",
        "tle_line2": "2 31850  98.5734  33.2199 0076224  83.7911 277.2005 15.33433546658540"
      },
      "geometry": {
        "type": "Point",
        "coordinates": [
          20.28188820154888,
          63.72462140028864
        ]
      }
    },
    {
      "type": "Feature",
      "properties": {
        "norad_id": 31854,
        "name": "FENGYUN 1C DEB",
        "group": "fengyun-1c-debris",
        "lat": -59.50385083416825,
        "lon": 10.950470042745316,
        "alt_km": 942.4729151392576,
        "timestamp": "2025-12-18T13:51:49.968449+00:00",
        "meta_object_name": "FENGYUN 1C DEB",
        "meta_object_id": "1999-025CJU",
        "meta_epoch": "2025-12-16T17:39:28.807776",
        "meta_mean_motion": 14.03079904,
        "meta_eccentricity": 0.00722941,
        "meta_inclination": 98.8474,
        "meta_ra_of_asc_node": 353.8254,
        "meta_arg_of_pericenter": 130.1288,
        "meta_mean_anomaly": 230.6242,
        "meta_ephemeris_type": 0,
        "meta_classification_type": "U",
        "meta_norad_cat_id": 31854,
        "meta_element_set_no": 999,
        "meta_rev_at_epoch": 69328,
        "meta_bstar": 0.00056714271,
        "meta_mean_motion_dot": 8.6e-06,
        "meta_mean_motion_ddot": 0,
        "tle_line1": "1 31854U 99025CJU 25350.73575009  .00000860  00000+0  56714-3 0  9996",
        "tle_line2": "2 31854  98.8474 353.8254 0072294 130.1288 230.6242 14.03079904693284"
      },
      "geometry": {
        "type": "Point",
        "coordinates": [
          10.950470042745316,
          -59.50385083416825
        ]
      }
    },
    {
      "type": "Feature",
      "properties": {
        "norad_id": 31857,
        "name": "FENGYUN 1C DEB",
        "group": "fengyun-1c-debris",
        "lat": -78.61786009522042,
        "lon": 52.63463843154286,
        "alt_km": 813.2780214356171,
        "timestamp": "2025-12-18T13:51:49.968459+00:00",
        "meta_object_name": "FENGYUN 1C DEB",
        "meta_object_id": "1999-025CJX",
        "meta_epoch": "2025-12-15T21:00:25.166592",
        "meta_mean_motion": 13.61938441,
        "meta_eccentricity": 0.03090507,
        "meta_inclination": 96.1875,
        "meta_ra_of_asc_node": 18.3078,
        "meta_arg_of_pericenter": 273.3355,
        "meta_mean_anomaly": 83.2492,
        "meta_ephemeris_type": 0,
        "meta_classification_type": "U",
        "meta_norad_cat_id": 31857,
        "meta_element_set_no": 999,
        "meta_rev_at_epoch": 61672,
        "meta_bstar": 0.0015742297,
        "meta_mean_motion_dot": 1.644e-05,
        "meta_mean_motion_ddot": 0,
        "tle_line1": "1 31857U 99025CJX 25349.87529128  .00001644  00000+0  15742-2 0  9999",
        "tle_line2": "2 31857  96.1875  18.3078 0309050 273.3355  83.2492 13.61938441616724"
      },
      "geometry": {
        "type": "Point",
        "coordinates": [
          52.63463843154286,
          -78.61786009522042
        ]
      }
    },
    {
      "type": "Feature",
      "properties": {
        "norad_id": 31861,
        "name": "FENGYUN 1C DEB",
        "group": "fengyun-1c-debris",
        "lat": -49.13246276445372,
        "lon": -158.97065011385854,
        "alt_km": 1305.821514484168,
        "timestamp": "2025-12-18T13:51:49.968469+00:00",
        "meta_object_name": "FENGYUN 1C DEB",
        "meta_object_id": "1999-025CKB",
        "meta_epoch": "2025-12-17T09:15:31.165632",
        "meta_mean_motion": 13.30336222,
        "meta_eccentricity": 0.04947395,
        "meta_inclination": 102.3406,
        "meta_ra_of_asc_node": 184.9452,
        "meta_arg_of_pericenter": 194.9897,
        "meta_mean_anomaly": 163.6087,
        "meta_ephemeris_type": 0,
        "meta_classification_type": "U",
        "meta_norad_cat_id": 31861,
        "meta_element_set_no": 999,
        "meta_rev_at_epoch": 66829,
        "meta_bstar": 0.0021126769,
        "meta_mean_motion_dot": 1.896e-05,
        "meta_mean_motion_ddot": 0,
        "tle_line1": "1 31861U 99025CKB 25351.38577738  .00001896  00000+0  21127-2 0  9996",
        "tle_line2": "2 31861 102.3406 184.9452 0494739 194.9897 163.6087 13.30336222668290"
      },
      "geometry": {
        "type": "Point",
        "coordinates": [
          -158.97065011385854,
          -49.13246276445372
        ]
      }
    }
  ]
}